From: horizons@ssd.jpl.nasa.gov (Horizons Ephemeris System)
Subject: [Horizons] SMALL BODY #C(500@10)_T(WISE (C/2010 L5)) (1/1)
Date: February 16, 2021 at 10:56:39 PM PST

Automated mail xmit by MAIL_REQUEST, PID= 8622 Tue Feb 16 22:56:39 2021
++++++++++++++++++++++++++++++++ (part 1 of 1)  +++++++++++++++++++++++++++++++


*******************************************************************************
Ephemeris / MAIL_REQUEST Tue Feb 16 22:56:39 2021 Pasadena, USA  / Horizons
*******************************************************************************
Target body name: WISE (C/2010 L5)                {source: JPL#6}
Center body name: Sun (10)                        {source: DE431}
Center-site name: BODY CENTER
*******************************************************************************
Start time      : A.D. 2009-Oct-23 00:00:00.0000 TDB
Stop  time      : A.D. 2010-Oct-23 00:00:00.0000 TDB
Step-size       : 10080 minutes
*******************************************************************************
Center geodetic : 0.00000000,0.00000000,0.0000000 {E-lon(deg),Lat(deg),Alt(km)}
Center cylindric: 0.00000000,0.00000000,0.0000000 {E-lon(deg),Dxy(km),Dz(km)}
Center radii    : 696000.0 x 696000.0 x 696000.0 k{Equator, meridian, pole}    
Small perturbers: Yes                             {source: SB431-N16}
Output units    : AU-D
Output type     : GEOMETRIC cartesian states
Output format   : 6 (LT, range, and range-rate)
Reference frame : Ecliptic of J2000.0
*******************************************************************************
Initial IAU76/J2000 heliocentric ecliptic osculating elements (au, days, deg.):
 EPOCH=  2455379.5 ! 2010-Jul-02.0000000 (TDB)    RMSW= n.a.                  
  EC= .9037561916724222   QR= .7909008328987752   TP= 2455309.6453834157      
  OM= 206.4730991405697   W= 214.7297449578989    IN= 147.0516809571623       
 Equivalent ICRF heliocentric equatorial cartesian coordinates (au, au/d):
  X=-2.073345819220385E-01  Y=-8.804255997976018E-01  Z=-1.105209724447381E+00
 VX=-1.601353982113975E-02 VY=-9.333106144856817E-03 VZ=-5.903259983153159E-03
Comet physical (GM= km^3/s^2; RAD= km):                                        
  GM= n.a.                RAD= n.a.                                           
  M1=  17.4     M2=  20.6     k1=  16.    k2=  5.      PHCOF=  .030           
*******************************************************************************
           JDTDB,            Calendar Date (TDB),                     LT,                     RG,                     RR,
**************************************************************************************************************************
$$SOE
2455127.500000000, A.D. 2009-Oct-23 00:00:00.0000,  1.599399032129517E-02,  2.769273579176007E+00, -1.093639670170271E-02,
2455134.500000000, A.D. 2009-Oct-30 00:00:00.0000,  1.554933754116475E-02,  2.692284336892746E+00, -1.106098090315466E-02,
2455141.500000000, A.D. 2009-Nov-06 00:00:00.0000,  1.509959410587343E-02,  2.614413674991579E+00, -1.118820770383496E-02,
2455148.500000000, A.D. 2009-Nov-13 00:00:00.0000,  1.464465650933599E-02,  2.535643671949402E+00, -1.131789868238630E-02,
2455155.500000000, A.D. 2009-Nov-20 00:00:00.0000,  1.418443029244443E-02,  2.455957972678659E+00, -1.144978005175296E-02,
2455162.500000000, A.D. 2009-Nov-27 00:00:00.0000,  1.371883452464244E-02,  2.375342564487901E+00, -1.158345006313982E-02,
2455169.500000000, A.D. 2009-Dec-04 00:00:00.0000,  1.324780782372250E-02,  2.293786819377360E+00, -1.171833488740019E-02,
2455176.500000000, A.D. 2009-Dec-11 00:00:00.0000,  1.277131646410736E-02,  2.211284897944348E+00, -1.185362854564798E-02,
2455183.500000000, A.D. 2009-Dec-18 00:00:00.0000,  1.228936533814078E-02,  2.127837647271927E+00, -1.198821059059261E-02,
2455190.500000000, A.D. 2009-Dec-25 00:00:00.0000,  1.180201284376019E-02,  2.043455178649525E+00, -1.212053231903974E-02,
2455197.500000000, A.D. 2010-Jan-01 00:00:00.0000,  1.130939123515054E-02,  1.958160391179414E+00, -1.224845745300021E-02,
2455204.500000000, A.D. 2010-Jan-08 00:00:00.0000,  1.081173465449611E-02,  1.871993825324084E+00, -1.236903805145992E-02,
2455211.500000000, A.D. 2010-Jan-15 00:00:00.0000,  1.030941790680566E-02,  1.785020376559102E+00, -1.247820227359750E-02,
2455218.500000000, A.D. 2010-Jan-22 00:00:00.0000,  9.803010317949704E-03,  1.697338620603190E+00, -1.257031101319766E-02,
2455225.500000000, A.D. 2010-Jan-29 00:00:00.0000,  9.293351215430720E-03,  1.609093882508457E+00, -1.263752016969166E-02,
2455232.500000000, A.D. 2010-Feb-05 00:00:00.0000,  8.781656416495200E-03,  1.520496674505447E+00, -1.266886867649346E-02,
2455239.500000000, A.D. 2010-Feb-12 00:00:00.0000,  8.269668969578878E-03,  1.431848796075299E+00, -1.264897960364715E-02,
2455246.500000000, A.D. 2010-Feb-19 00:00:00.0000,  7.759872591853454E-03,  1.343580289515372E+00, -1.255623243174112E-02,
2455253.500000000, A.D. 2010-Feb-26 00:00:00.0000,  7.255792108436273E-03,  1.256301459375850E+00, -1.236026774992136E-02,
2455260.500000000, A.D. 2010-Mar-05 00:00:00.0000,  6.762409139951203E-03,  1.170874846529776E+00, -1.201879740947516E-02,
2455267.500000000, A.D. 2010-Mar-12 00:00:00.0000,  6.286715587953368E-03,  1.088511061203607E+00, -1.147410389222345E-02,
2455274.500000000, A.D. 2010-Mar-19 00:00:00.0000,  5.838392959560854E-03,  1.010886404391035E+00, -1.065071239072182E-02,
2455281.500000000, A.D. 2010-Mar-26 00:00:00.0000,  5.430503161138554E-03,  9.402624750716359E-01, -9.458062650158980E-03,
2455288.500000000, A.D. 2010-Apr-02 00:00:00.0000,  5.079852271958315E-03,  8.795491556676277E-01, -7.805554397999396E-03,
2455295.500000000, A.D. 2010-Apr-09 00:00:00.0000,  4.806333223490362E-03,  8.321908004912364E-01, -5.639295298257661E-03,
2455302.500000000, A.D. 2010-Apr-16 00:00:00.0000,  4.630328335003703E-03,  8.017164987253430E-01, -2.999026718291460E-03,
2455309.500000000, A.D. 2010-Apr-23 00:00:00.0000,  4.567887876873470E-03,  7.909052685383726E-01, -6.253635832221347E-05,
2455316.500000000, A.D. 2010-Apr-30 00:00:00.0000,  4.625361463639780E-03,  8.008565116074964E-01,  2.880504954488514E-03,
2455323.500000000, A.D. 2010-May-07 00:00:00.0000,  4.796891618087423E-03,  8.305560371918892E-01,  5.537729601484933E-03,
2455330.500000000, A.D. 2010-May-14 00:00:00.0000,  5.066733739828765E-03,  8.772777522408317E-01,  7.725481349823421E-03,
2455337.500000000, A.D. 2010-May-21 00:00:00.0000,  5.414577413806133E-03,  9.375050173997013E-01,  9.398858842963268E-03,
2455344.500000000, A.D. 2010-May-28 00:00:00.0000,  5.820441690329698E-03,  1.007778238473970E+00,  1.060905456240265E-02,
2455351.500000000, A.D. 2010-Jun-04 00:00:00.0000,  6.267367266145262E-03,  1.085161003131280E+00,  1.144600336561292E-02,
2455358.500000000, A.D. 2010-Jun-11 00:00:00.0000,  6.742137772477752E-03,  1.167364968054782E+00,  1.200070323969595E-02,
2455365.500000000, A.D. 2010-Jun-18 00:00:00.0000,  7.234942989762985E-03,  1.252691546381582E+00,  1.234937671150315E-02,
2455372.500000000, A.D. 2010-Jun-25 00:00:00.0000,  7.738692563169355E-03,  1.339913081228834E+00,  1.255045868141281E-02,
2455379.500000000, A.D. 2010-Jul-02 00:00:00.0000,  8.248332747182960E-03,  1.428154543685901E+00,  1.264681513539461E-02,
2455386.500000000, A.D. 2010-Jul-09 00:00:00.0000,  8.760286905720513E-03,  1.516796658411936E+00,  1.266923587118291E-02,
2455393.500000000, A.D. 2010-Jul-16 00:00:00.0000,  9.272034399211907E-03,  1.605402990194466E+00,  1.263965294206478E-02,
2455400.500000000, A.D. 2010-Jul-23 00:00:00.0000,  9.781805960252079E-03,  1.693667199878541E+00,  1.257366575822463E-02,
2455407.500000000, A.D. 2010-Jul-30 00:00:00.0000,  1.028836716845498E-02,  1.781375554199851E+00,  1.248239328075682E-02,
2455414.500000000, A.D. 2010-Aug-06 00:00:00.0000,  1.079086549564916E-02,  1.868380442481308E+00,  1.237379156413978E-02,
2455421.500000000, A.D. 2010-Aug-13 00:00:00.0000,  1.128872223419944E-02,  1.954581664601992E+00,  1.225357832761655E-02,
2455428.500000000, A.D. 2010-Aug-20 00:00:00.0000,  1.178155584997854E-02,  2.039913159975582E+00,  1.212587946346406E-02,
2455435.500000000, A.D. 2010-Aug-27 00:00:00.0000,  1.226912731961506E-02,  2.124333542988237E+00,  1.199368185490560E-02,
2455442.500000000, A.D. 2010-Sep-03 00:00:00.0000,  1.275130089511839E-02,  2.207819309603985E+00,  1.185915195014872E-02,
2455449.500000000, A.D. 2010-Sep-10 00:00:00.0000,  1.322801575247483E-02,  2.290359928471319E+00,  1.172386124544833E-02,
2455456.500000000, A.D. 2010-Sep-17 00:00:00.0000,  1.369926536288692E-02,  2.371954269164000E+00,  1.158894660091042E-02,
2455463.500000000, A.D. 2010-Sep-24 00:00:00.0000,  1.416508235635732E-02,  2.452607981391851E+00,  1.145522435351708E-02,
2455470.500000000, A.D. 2010-Oct-01 00:00:00.0000,  1.462552733737854E-02,  2.532331558497468E+00,  1.132327432991008E-02,
2455477.500000000, A.D. 2010-Oct-08 00:00:00.0000,  1.508068068428343E-02,  2.611138917557767E+00,  1.119350388024566E-02,
2455484.500000000, A.D. 2010-Oct-15 00:00:00.0000,  1.553063652955547E-02,  2.689046357107020E+00,  1.106619206410764E-02,
2455491.500000000, A.D. 2010-Oct-22 00:00:00.0000,  1.597549823665161E-02,  2.766071773973017E+00,  1.094152108034459E-02,
$$EOE
**************************************************************************************************************************
Coordinate system description:

 Ecliptic at the standard reference epoch

   Reference epoch: J2000.0
   X-Y plane: adopted Earth orbital plane at the reference epoch
              Note: obliquity of 84381.448 arcseconds (IAU76) wrt ICRF equator
   X-axis   : ICRF
   Z-axis   : perpendicular to the X-Y plane in the directional (+ or -) sense
              of Earth's north pole at the reference epoch.

 Symbol meaning [1 au= 149597870.700 km, 1 day= 86400.0 s]:

   JDTDB    Julian Day Number, Barycentric Dynamical Time
     LT     One-way down-leg Newtonian light-time (day)
     RG     Range; distance from coordinate center (au)
     RR     Range-rate; radial velocity wrt coord. center (au/day)

Geometric states/elements have no aberrations applied.


Computations by ...
    Solar System Dynamics Group, Horizons On-Line Ephemeris System
    4800 Oak Grove Drive, Jet Propulsion Laboratory
    Pasadena, CA  91109   USA
    Information  : https://ssd.jpl.nasa.gov/
    Documentation: https://ssd.jpl.nasa.gov/?horizons_doc
    Connect      : https://ssd.jpl.nasa.gov/?horizons (browser)
                   telnet ssd.jpl.nasa.gov 6775       (command-line)
                   e-mail command interface available
                   Script and CGI interfaces available
    Author       : Jon.D.Giorgini@jpl.nasa.gov
*******************************************************************************
